{
  "type": "FeatureCollection",
  "features": [
    {
      "type": "Feature",
      "properties": {
        "norad_id": 66891,
        "name": "STARLINK-35855",
        "group": "last-30-days",
        "lat": 20.896377706311938,
        "lon": -178.08251423851843,
        "alt_km": 361.85682981873106,
        "timestamp": "2025-12-23T18:59:30.758924+00:00",
        "meta_object_name": "STARLINK-35855",
        "meta_object_id": "2025-283P",
        "meta_epoch": "2025-12-23T06:00:00.999648",
        "meta_mean_motion": 15.70409724,
        "meta_eccentricity": 0.00010684,
        "meta_inclination": 53.1589,
        "meta_ra_of_asc_node": 21.2184,
        "meta_arg_of_pericenter": 89.0067,
        "meta_mean_anomaly": 244.619,
        "meta_ephemeris_type": 0,
        "meta_classification_type": "U",
        "meta_norad_cat_id": 66891,
        "meta_element_set_no": 999,
        "meta_rev_at_epoch": 411,
        "meta_bstar": -0.017999554,
        "meta_mean_motion_dot": -0.01982804,
        "meta_mean_motion_ddot": 0,
        "tle_line1": "1 66891U 25283P   25357.25001157 -.01982804  00000+0 -18000-1 0  9996",
        "tle_line2": "2 66891  53.1589  21.2184 0001068  89.0067 244.6190 15.70409724  4117"
      },
      "geometry": {
        "type": "Point",
        "coordinates": [
          -178.08251423851843,
          20.896377706311938
        ]
      }
    },
    {
      "type": "Feature",
      "properties": {
        "norad_id": 66892,
        "name": "STARLINK-35883",
        "group": "last-30-days",
        "lat": 19.420517922134046,
        "lon": -176.78012410806733,
        "alt_km": 362.104017132212,
        "timestamp": "2025-12-23T18:59:30.758933+00:00",
        "meta_object_name": "STARLINK-35883",
        "meta_object_id": "2025-283Q",
        "meta_epoch": "2025-12-23T06:00:00.999648",
        "meta_mean_motion": 15.70411507,
        "meta_eccentricity": 0.00010706,
        "meta_inclination": 53.1591,
        "meta_ra_of_asc_node": 21.2144,
        "meta_arg_of_pericenter": 90.3044,
        "meta_mean_anomaly": 245.2357,
        "meta_ephemeris_type": 0,
        "meta_classification_type": "U",
        "meta_norad_cat_id": 66892,
        "meta_element_set_no": 999,
        "meta_rev_at_epoch": 405,
        "meta_bstar": -0.018005281,
        "meta_mean_motion_dot": -0.01983494,
        "meta_mean_motion_ddot": 0,
        "tle_line1": "1 66892U 25283Q   25357.25001157 -.01983494  00000+0 -18005-1 0  9998",
        "tle_line2": "2 66892  53.1591  21.2144 0001070  90.3044 245.2357 15.70411507  4057"
      },
      "geometry": {
        "type": "Point",
        "coordinates": [
          -176.78012410806733,
          19.420517922134046
        ]
      }
    },
    {
      "type": "Feature",
      "properties": {
        "norad_id": 66893,
        "name": "STARLINK-36033",
        "group": "last-30-days",
        "lat": 17.93592571384676,
        "lon": -175.50201916108045,
        "alt_km": 362.4008435028909,
        "timestamp": "2025-12-23T18:59:30.758942+00:00",
        "meta_object_name": "STARLINK-36033",
        "meta_object_id": "2025-283R",
        "meta_epoch": "2025-12-23T06:00:00.999648",
        "meta_mean_motion": 15.70408984,
        "meta_eccentricity": 0.00010462,
        "meta_inclination": 53.1591,
        "meta_ra_of_asc_node": 21.2102,
        "meta_arg_of_pericenter": 83.9718,
        "meta_mean_anomaly": 253.4885,
        "meta_ephemeris_type": 0,
        "meta_classification_type": "U",
        "meta_norad_cat_id": 66893,
        "meta_element_set_no": 999,
        "meta_rev_at_epoch": 411,
        "meta_bstar": -0.017997482,
        "meta_mean_motion_dot": -0.01982531,
        "meta_mean_motion_ddot": 0,
        "tle_line1": "1 66893U 25283R   25357.25001157 -.01982531  00000+0 -17997-1 0  9999",
        "tle_line2": "2 66893  53.1591  21.2102 0001046  83.9718 253.4885 15.70408984  4110"
      },
      "geometry": {
        "type": "Point",
        "coordinates": [
          -175.50201916108045,
          17.93592571384676
        ]
      }
    },
    {
      "type": "Feature",
      "properties": {
        "norad_id": 66894,
        "name": "STARLINK-35718",
        "group": "last-30-days",
        "lat": 16.44197370035729,
        "lon": -174.24350943551775,
        "alt_km": 362.6378196445685,
        "timestamp": "2025-12-23T18:59:30.758952+00:00",
        "meta_object_name": "STARLINK-35718",
        "meta_object_id": "2025-283S",
        "meta_epoch": "2025-12-23T06:00:00.999648",
        "meta_mean_motion": 15.70409262,
        "meta_eccentricity": 0.00010485,
        "meta_inclination": 53.1591,
        "meta_ra_of_asc_node": 21.2069,
        "meta_arg_of_pericenter": 85.8285,
        "meta_mean_anomaly": 253.546,
        "meta_ephemeris_type": 0,
        "meta_classification_type": "U",
        "meta_norad_cat_id": 66894,
        "meta_element_set_no": 999,
        "meta_rev_at_epoch": 411,
        "meta_bstar": -0.017970152,
        "meta_mean_motion_dot": -0.01979898,
        "meta_mean_motion_ddot": 0,
        "tle_line1": "1 66894U 25283S   25357.25001157 -.01979898  00000+0 -17970-1 0  9993",
        "tle_line2": "2 66894  53.1591  21.2069 0001048  85.8285 253.5460 15.70409262  4115"
      },
      "geometry": {
        "type": "Point",
        "coordinates": [
          -174.24350943551775,
          16.44197370035729
        ]
      }
    },
    {
      "type": "Feature",
      "properties": {
        "norad_id": 66895,
        "name": "STARLINK-35971",
        "group": "last-30-days",
        "lat": 13.434609717068806,
        "lon": -171.78732152905908,
        "alt_km": 363.2116450205631,
        "timestamp": "2025-12-23T18:59:30.758963+00:00",
        "meta_object_name": "STARLINK-35971",
        "meta_object_id": "2025-283T",
        "meta_epoch": "2025-12-23T06:00:00.999648",
        "meta_mean_motion": 15.70410432,
        "meta_eccentricity": 9.166e-05,
        "meta_inclination": 53.1589,
        "meta_ra_of_asc_node": 21.1971,
        "meta_arg_of_pericenter": 80.5155,
        "meta_mean_anomaly": 262.6942,
        "meta_ephemeris_type": 0,
        "meta_classification_type": "U",
        "meta_norad_cat_id": 66895,
        "meta_element_set_no": 999,
        "meta_rev_at_epoch": 411,
        "meta_bstar": -0.017988843,
        "meta_mean_motion_dot": -0.01981701,
        "meta_mean_motion_ddot": 0,
        "tle_line1": "1 66895U 25283T   25357.25001157 -.01981701  00000+0 -17989-1 0  9990",
        "tle_line2": "2 66895  53.1589  21.1971 0000916  80.5155 262.6942 15.70410432  4112"
      },
      "geometry": {
        "type": "Point",
        "coordinates": [
          -171.78732152905908,
          13.434609717068806
        ]
      }
    },
    {
      "type": "Feature",
      "properties": {
        "norad_id": 66896,
        "name": "STARLINK-35791",
        "group": "last-30-days",
        "lat": 14.938516069260197,
        "lon": -173.0047226708447,
        "alt_km": 362.9118464444191,
        "timestamp": "2025-12-23T18:59:30.758972+00:00",
        "meta_object_name": "STARLINK-35791",
        "meta_object_id": "2025-283U",
        "meta_epoch": "2025-12-23T06:00:00.999648",
        "meta_mean_motion": 15.70329176,
        "meta_eccentricity": 5.905e-05,
        "meta_inclination": 53.1591,
        "meta_ra_of_asc_node": 21.2014,
        "meta_arg_of_pericenter": 81.2567,
        "meta_mean_anomaly": 260.0941,
        "meta_ephemeris_type": 0,
        "meta_classification_type": "U",
        "meta_norad_cat_id": 66896,
        "meta_element_set_no": 999,
        "meta_rev_at_epoch": 411,
        "meta_bstar": -0.017168764,
        "meta_mean_motion_dot": -0.01895569,
        "meta_mean_motion_ddot": 0,
        "tle_line1": "1 66896U 25283U   25357.25001157 -.01895569  00000+0 -17169-1 0  9997",
        "tle_line2": "2 66896  53.1591  21.2014 0000590  81.2567 260.0941 15.70329176  4113"
      },
      "geometry": {
        "type": "Point",
        "coordinates": [
          -173.0047226708447,
          14.938516069260197
        ]
      }
    },
    {
      "type": "Feature",
      "properties": {
        "norad_id": 66897,
        "name": "STARLINK-36079",
        "group": "last-30-days",
        "lat": 11.921434528220555,
        "lon": -170.58113428404633,
        "alt_km": 363.4410855015276,
        "timestamp": "2025-12-23T18:59:30.758983+00:00",
        "meta_object_name": "STARLINK-36079",
        "meta_object_id": "2025-283V",
        "meta_epoch": "2025-12-23T06:00:00.999648",
        "meta_mean_motion": 15.7040875,
        "meta_eccentricity": 9.625e-05,
        "meta_inclination": 53.1592,
        "meta_ra_of_asc_node": 21.1938,
        "meta_arg_of_pericenter": 82.0569,
        "meta_mean_anomaly": 263.0711,
        "meta_ephemeris_type": 0,
        "meta_classification_type": "U",
        "meta_norad_cat_id": 66897,
        "meta_element_set_no": 999,
        "meta_rev_at_epoch": 411,
        "meta_bstar": -0.017973168,
        "meta_mean_motion_dot": -0.01980088,
        "meta_mean_motion_ddot": 0,
        "tle_line1": "1 66897U 25283V   25357.25001157 -.01980088  00000+0 -17973-1 0  9992",
        "tle_line2": "2 66897  53.1592  21.1938 0000962  82.0569 263.0711 15.70408750  4117"
      },
      "geometry": {
        "type": "Point",
        "coordinates": [
          -170.58113428404633,
          11.921434528220555
        ]
      }
    }
  ]
}